[{"OBJECT_NAME":"LYNK TOWER 6","OBJECT_ID":"2024-043AB","EPOCH":"2026-03-09T21:28:38.303328","MEAN_MOTION":15.29548678,"ECCENTRICITY":0.00097492,"INCLINATION":97.5426,"RA_OF_ASC_NODE":204.1954,"ARG_OF_PERICENTER":232.0253,"MEAN_ANOMALY":128.0107,"EPHEMERIS_TYPE":0,"CLASSIFICATION_TYPE":"U","NORAD_CAT_ID":59123,"ELEMENT_SET_NO":999,"REV_AT_EPOCH":11184,"BSTAR":0.00040142146,"MEAN_MOTION_DOT":0.0001144,"MEAN_MOTION_DDOT":0},{"OBJECT_NAME":"STARLINK-35603","OBJECT_ID":"2025-237AD","EPOCH":"2026-03-09T22:25:03.942624","MEAN_MOTION":15.30224327,"ECCENTRICITY":0.0001339,"INCLINATION":53.1589,"RA_OF_ASC_NODE":38.792,"ARG_OF_PERICENTER":88.999,"MEAN_ANOMALY":271.1165,"EPHEMERIS_TYPE":0,"CLASSIFICATION_TYPE":"U","NORAD_CAT_ID":66141,"ELEMENT_SET_NO":999,"REV_AT_EPOCH":2264,"BSTAR":0.0013293779,"MEAN_MOTION_DOT":0.00039251,"MEAN_MOTION_DDOT":0}]
